STARLINK-35444          
1 66511U 25263AC  25325.66672454 -.01125853  42209-3 -17432-2 0  9990
2 66511  43.0007 252.5046 0002175 258.6878 114.7504 16.03283905  2245
STARLINK-35366          
1 66512U 25263AD  25325.66672454 -.01129049  42552-3 -17213-2 0  9990
2 66512  43.0005 252.4952 0002095 258.1982 118.8515 16.03542628  2248
STARLINK-35692          
1 66513U 25263AE  25325.66672454 -.01133410  42682-3 -17651-2 0  9998
2 66513  43.0008 252.5084 0002111 259.9229 111.9650 16.03188374  2249
SENTINEL-6B             
1 66514U 25264A   25326.09160228  .00000962  00000+0  41457-2 0  9996
2 66514  66.0399 205.6270 0011532 270.7520  89.2176 12.85876837   631
SZ-21 MODULE            
1 66515U 25246C   25325.94826458  .00025972  00000+0  30214-3 0  9992
2 66515  41.4747 142.7430 0004546 115.8358 244.2950 15.61102603  1195
SHIJIAN-30A             
1 66545U 25266A   25325.91801762  .00007907  00000+0  42594-3 0  9997
2 66545  51.7998  70.3878 0012797 282.2611  77.6933 15.15616742   427
SHIJIAN-30B             
1 66546U 25266B   25325.91846846  .00013220  00000+0  70585-3 0  9996
2 66546  51.7980  70.3909 0010482 281.6541  78.3259 15.15376230   422
SHIJIAN-30C             
1 66547U 25266C   25325.91889600  .00013836  00000+0  74282-3 0  9993
2 66547  51.7989  70.3930 0011266 275.0067  84.9623 15.15133960   426
CZ-2C R/B               
1 66548U 25266D   25325.89363714  .00014766  00000+0  46671-3 0  9998
2 66548  52.0563  70.5437 0085438 102.0799 258.9776 15.29527245   426
TJS-21                  
1 66586U 25269A   25325.52968620  .00002832  00000+0  52022-3 0  9998
2 66586  51.0457 174.8337 7517257 224.9550  41.7928  2.00980886    12
CZ-3B R/B               
1 66587U 25269B   25325.52943694  .00006929 -86139-6  51894-3 0  9995
2 66587  51.3636 174.5119 7521144 224.9566  41.7220  2.01465750    22
