CCSDS_OMM_VERS = 2.0
CREATION_DATE  = 
ORIGINATOR     = 

OBJECT_NAME    = STARLINK-35444
OBJECT_ID      = 2025-263AC
CENTER_NAME    = EARTH
REF_FRAME      = TEME
TIME_SYSTEM    = UTC
MEAN_ELEMENT_THEORY = SGP/SGP4

EPOCH          = 2025-11-21T16:00:05.000256
MEAN_MOTION    = 16.03283905
ECCENTRICITY   = .0002175
INCLINATION    = 43.0007
RA_OF_ASC_NODE = 252.5046
ARG_OF_PERICENTER = 258.6878
MEAN_ANOMALY   = 114.7504

EPHEMERIS_TYPE = 0
CLASSIFICATION_TYPE = U
NORAD_CAT_ID   = 66511
ELEMENT_SET_NO = 999
REV_AT_EPOCH   = 224
BSTAR          = -.17432E-2
MEAN_MOTION_DOT = -.1125853E-1
MEAN_MOTION_DDOT = .42209E-3

CCSDS_OMM_VERS = 2.0
CREATION_DATE  = 
ORIGINATOR     = 

OBJECT_NAME    = STARLINK-35366
OBJECT_ID      = 2025-263AD
CENTER_NAME    = EARTH
REF_FRAME      = TEME
TIME_SYSTEM    = UTC
MEAN_ELEMENT_THEORY = SGP/SGP4

EPOCH          = 2025-11-21T16:00:05.000256
MEAN_MOTION    = 16.03542628
ECCENTRICITY   = .0002095
INCLINATION    = 43.0005
RA_OF_ASC_NODE = 252.4952
ARG_OF_PERICENTER = 258.1982
MEAN_ANOMALY   = 118.8515

EPHEMERIS_TYPE = 0
CLASSIFICATION_TYPE = U
NORAD_CAT_ID   = 66512
ELEMENT_SET_NO = 999
REV_AT_EPOCH   = 224
BSTAR          = -.17213E-2
MEAN_MOTION_DOT = -.1129049E-1
MEAN_MOTION_DDOT = .42552E-3

CCSDS_OMM_VERS = 2.0
CREATION_DATE  = 
ORIGINATOR     = 

OBJECT_NAME    = STARLINK-35692
OBJECT_ID      = 2025-263AE
CENTER_NAME    = EARTH
REF_FRAME      = TEME
TIME_SYSTEM    = UTC
MEAN_ELEMENT_THEORY = SGP/SGP4

EPOCH          = 2025-11-21T16:00:05.000256
MEAN_MOTION    = 16.03188374
ECCENTRICITY   = .0002111
INCLINATION    = 43.0008
RA_OF_ASC_NODE = 252.5084
ARG_OF_PERICENTER = 259.9229
MEAN_ANOMALY   = 111.9650

EPHEMERIS_TYPE = 0
CLASSIFICATION_TYPE = U
NORAD_CAT_ID   = 66513
ELEMENT_SET_NO = 999
REV_AT_EPOCH   = 224
BSTAR          = -.17651E-2
MEAN_MOTION_DOT = -.113341E-1
MEAN_MOTION_DDOT = .42682E-3

CCSDS_OMM_VERS = 2.0
CREATION_DATE  = 
ORIGINATOR     = 

OBJECT_NAME    = SENTINEL-6B
OBJECT_ID      = 2025-264A
CENTER_NAME    = EARTH
REF_FRAME      = TEME
TIME_SYSTEM    = UTC
MEAN_ELEMENT_THEORY = SGP/SGP4

EPOCH          = 2025-11-22T02:11:54.436992
MEAN_MOTION    = 12.85876837
ECCENTRICITY   = .0011532
INCLINATION    = 66.0399
RA_OF_ASC_NODE = 205.6270
ARG_OF_PERICENTER = 270.7520
MEAN_ANOMALY   = 89.2176

EPHEMERIS_TYPE = 0
CLASSIFICATION_TYPE = U
NORAD_CAT_ID   = 66514
ELEMENT_SET_NO = 999
REV_AT_EPOCH   = 63
BSTAR          = .41457E-2
MEAN_MOTION_DOT = .962E-5
MEAN_MOTION_DDOT = 0

CCSDS_OMM_VERS = 2.0
CREATION_DATE  = 
ORIGINATOR     = 

OBJECT_NAME    = SZ-21 MODULE
OBJECT_ID      = 2025-246C
CENTER_NAME    = EARTH
REF_FRAME      = TEME
TIME_SYSTEM    = UTC
MEAN_ELEMENT_THEORY = SGP/SGP4

EPOCH          = 2025-11-21T22:45:30.059712
MEAN_MOTION    = 15.61102603
ECCENTRICITY   = .0004546
INCLINATION    = 41.4747
RA_OF_ASC_NODE = 142.7430
ARG_OF_PERICENTER = 115.8358
MEAN_ANOMALY   = 244.2950

EPHEMERIS_TYPE = 0
CLASSIFICATION_TYPE = U
NORAD_CAT_ID   = 66515
ELEMENT_SET_NO = 999
REV_AT_EPOCH   = 119
BSTAR          = .30214E-3
MEAN_MOTION_DOT = .25972E-3
MEAN_MOTION_DDOT = 0

CCSDS_OMM_VERS = 2.0
CREATION_DATE  = 
ORIGINATOR     = 

OBJECT_NAME    = SHIJIAN-30A
OBJECT_ID      = 2025-266A
CENTER_NAME    = EARTH
REF_FRAME      = TEME
TIME_SYSTEM    = UTC
MEAN_ELEMENT_THEORY = SGP/SGP4

EPOCH          = 2025-11-21T22:01:56.722368
MEAN_MOTION    = 15.15616742
ECCENTRICITY   = .0012797
INCLINATION    = 51.7998
RA_OF_ASC_NODE = 70.3878
ARG_OF_PERICENTER = 282.2611
MEAN_ANOMALY   = 77.6933

EPHEMERIS_TYPE = 0
CLASSIFICATION_TYPE = U
NORAD_CAT_ID   = 66545
ELEMENT_SET_NO = 999
REV_AT_EPOCH   = 42
BSTAR          = .42594E-3
MEAN_MOTION_DOT = .7907E-4
MEAN_MOTION_DDOT = 0

CCSDS_OMM_VERS = 2.0
CREATION_DATE  = 
ORIGINATOR     = 

OBJECT_NAME    = SHIJIAN-30B
OBJECT_ID      = 2025-266B
CENTER_NAME    = EARTH
REF_FRAME      = TEME
TIME_SYSTEM    = UTC
MEAN_ELEMENT_THEORY = SGP/SGP4

EPOCH          = 2025-11-21T22:02:35.674944
MEAN_MOTION    = 15.15376230
ECCENTRICITY   = .0010482
INCLINATION    = 51.7980
RA_OF_ASC_NODE = 70.3909
ARG_OF_PERICENTER = 281.6541
MEAN_ANOMALY   = 78.3259

EPHEMERIS_TYPE = 0
CLASSIFICATION_TYPE = U
NORAD_CAT_ID   = 66546
ELEMENT_SET_NO = 999
REV_AT_EPOCH   = 42
BSTAR          = .70585E-3
MEAN_MOTION_DOT = .1322E-3
MEAN_MOTION_DDOT = 0

CCSDS_OMM_VERS = 2.0
CREATION_DATE  = 
ORIGINATOR     = 

OBJECT_NAME    = SHIJIAN-30C
OBJECT_ID      = 2025-266C
CENTER_NAME    = EARTH
REF_FRAME      = TEME
TIME_SYSTEM    = UTC
MEAN_ELEMENT_THEORY = SGP/SGP4

EPOCH          = 2025-11-21T22:03:12.614400
MEAN_MOTION    = 15.15133960
ECCENTRICITY   = .0011266
INCLINATION    = 51.7989
RA_OF_ASC_NODE = 70.3930
ARG_OF_PERICENTER = 275.0067
MEAN_ANOMALY   = 84.9623

EPHEMERIS_TYPE = 0
CLASSIFICATION_TYPE = U
NORAD_CAT_ID   = 66547
ELEMENT_SET_NO = 999
REV_AT_EPOCH   = 42
BSTAR          = .74282E-3
MEAN_MOTION_DOT = .13836E-3
MEAN_MOTION_DDOT = 0

CCSDS_OMM_VERS = 2.0
CREATION_DATE  = 
ORIGINATOR     = 

OBJECT_NAME    = CZ-2C R/B
OBJECT_ID      = 2025-266D
CENTER_NAME    = EARTH
REF_FRAME      = TEME
TIME_SYSTEM    = UTC
MEAN_ELEMENT_THEORY = SGP/SGP4

EPOCH          = 2025-11-21T21:26:50.248896
MEAN_MOTION    = 15.29527245
ECCENTRICITY   = .0085438
INCLINATION    = 52.0563
RA_OF_ASC_NODE = 70.5437
ARG_OF_PERICENTER = 102.0799
MEAN_ANOMALY   = 258.9776

EPHEMERIS_TYPE = 0
CLASSIFICATION_TYPE = U
NORAD_CAT_ID   = 66548
ELEMENT_SET_NO = 999
REV_AT_EPOCH   = 42
BSTAR          = .46671E-3
MEAN_MOTION_DOT = .14766E-3
MEAN_MOTION_DDOT = 0

CCSDS_OMM_VERS = 2.0
CREATION_DATE  = 
ORIGINATOR     = 

OBJECT_NAME    = TJS-21
OBJECT_ID      = 2025-269A
CENTER_NAME    = EARTH
REF_FRAME      = TEME
TIME_SYSTEM    = UTC
MEAN_ELEMENT_THEORY = SGP/SGP4

EPOCH          = 2025-11-21T12:42:44.887680
MEAN_MOTION    = 2.00980886
ECCENTRICITY   = .7517257
INCLINATION    = 51.0457
RA_OF_ASC_NODE = 174.8337
ARG_OF_PERICENTER = 224.9550
MEAN_ANOMALY   = 41.7928

EPHEMERIS_TYPE = 0
CLASSIFICATION_TYPE = U
NORAD_CAT_ID   = 66586
ELEMENT_SET_NO = 999
REV_AT_EPOCH   = 1
BSTAR          = .52022E-3
MEAN_MOTION_DOT = .2832E-4
MEAN_MOTION_DDOT = 0

CCSDS_OMM_VERS = 2.0
CREATION_DATE  = 
ORIGINATOR     = 

OBJECT_NAME    = CZ-3B R/B
OBJECT_ID      = 2025-269B
CENTER_NAME    = EARTH
REF_FRAME      = TEME
TIME_SYSTEM    = UTC
MEAN_ELEMENT_THEORY = SGP/SGP4

EPOCH          = 2025-11-21T12:42:23.351616
MEAN_MOTION    = 2.01465750
ECCENTRICITY   = .7521144
INCLINATION    = 51.3636
RA_OF_ASC_NODE = 174.5119
ARG_OF_PERICENTER = 224.9566
MEAN_ANOMALY   = 41.7220

EPHEMERIS_TYPE = 0
CLASSIFICATION_TYPE = U
NORAD_CAT_ID   = 66587
ELEMENT_SET_NO = 999
REV_AT_EPOCH   = 2
BSTAR          = .51894E-3
MEAN_MOTION_DOT = .6929E-4
MEAN_MOTION_DDOT = -.86139E-6

